0 IRIDIUM 18
1 24872U 97034D   13281.40451468  .00000314  00000-0  10493-3 0  5098
2 24872 086.3990 225.3152 0002244 096.6717 263.4734 14.34220582850731
0 IRIDIUM 18
1 24872U 97034D   13282.45104058  .00000334  00000-0  11204-3 0  5109
2 24872 086.3991 224.8781 0002221 096.3847 263.7602 14.34222826850886
0 IRIDIUM 18
1 24872U 97034D   13283.42779686  .00000327  00000-0  10965-3 0  5118
2 24872 086.3993 224.4700 0002207 096.5471 263.5976 14.34223590851022
0 IRIDIUM 18
1 24872U 97034D   13284.40455252  .00000340  00000-0  11418-3 0  5127
2 24872 086.3995 224.0620 0002197 096.5488 263.5958 14.34224111851162
0 IRIDIUM 18
1 24872U 97034D   13285.38130758  .00000305  00000-0  10173-3 0  5135
2 24872 086.3997 223.6539 0002189 096.6865 263.4580 14.34224737851309
0 IRIDIUM 18
1 24872U 97034D   13286.42783017  .00000339  00000-0  11403-3 0  5148
2 24872 086.3999 223.2167 0002177 096.6110 263.5334 14.34225355851455
0 IRIDIUM 18
1 24872U 97034D   13287.33481621  .00000383  00000-0  12966-3 0  5150
2 24872 086.4001 222.8379 0002164 096.4308 263.7135 14.34225905851589
0 IRIDIUM 18
1 24872U 97034D   13288.45110580  .00000522  00000-0  17946-3 0  5166
2 24872 086.4003 222.3717 0002153 096.0010 264.1431 14.34227313851743
0 IRIDIUM 18
1 24872U 97034D   13289.42785854  .00000415  00000-0  14117-3 0  5175
2 24872 086.4004 221.9638 0002136 096.2838 263.8601 14.34228678851887
0 IRIDIUM 18
1 24872U 97034D   13290.40461050  .00000471  00000-0  16100-3 0  5181
2 24872 086.4004 221.5560 0002121 096.2561 263.8877 14.34229371852027
0 IRIDIUM 18
1 24872U 97034D   13291.45112978  .00000460  00000-0  15708-3 0  5191
2 24872 086.4004 221.1191 0002111 096.4515 263.6921 14.34230158852172
0 IRIDIUM 18
1 24872U 97034D   13292.14881604  .00000484  00000-0  16567-3 0  5209
2 24872 086.4009 220.8284 0002230 097.6937 262.4512 14.34216913852276
0 IRIDIUM 18
1 24872U 97034D   13292.35812215  .00000478  00000-0  16353-3 0  5211
2 24872 086.4004 220.7404 0002121 095.7241 264.4197 14.34216571852305
0 IRIDIUM 18
1 24872U 97034D   13293.40465073  .00000504  00000-0  17303-3 0  5221
2 24872 086.4004 220.3035 0002103 095.7302 264.4134 14.34217666852452
0 IRIDIUM 18
1 24872U 97034D   13294.38141022  .00000494  00000-0  16950-3 0  5230
2 24872 086.4004 219.8959 0002087 095.8071 264.3363 14.34218912852598
0 IRIDIUM 18
1 24872U 97034D   13295.28840043  .00000515  00000-0  17673-3 0  5247
2 24872 086.4004 219.5172 0002076 095.9356 264.2077 14.34219821852723
